{
    "links": {
        "self": "http://www.neowsapp.com/rest/v1/neo/3638288?api_key=iIulBulltgU6a56xZRHN4H3l9WmuAYTsLGpBGhQ2"
    },
    "id": "3638288",
    "neo_reference_id": "3638288",
    "name": "(2013 JM14)",
    "designation": "2013 JM14",
    "nasa_jpl_url": "http://ssd.jpl.nasa.gov/sbdb.cgi?sstr=3638288",
    "absolute_magnitude_h": 21.5,
    "estimated_diameter": {
        "kilometers": {
            "estimated_diameter_min": 0.1332155667,
            "estimated_diameter_max": 0.2978790628
        },
        "meters": {
            "estimated_diameter_min": 133.2155666981,
            "estimated_diameter_max": 297.8790627982
        },
        "miles": {
            "estimated_diameter_min": 0.0827762899,
            "estimated_diameter_max": 0.1850934111
        },
        "feet": {
            "estimated_diameter_min": 437.0589598459,
            "estimated_diameter_max": 977.2935443908
        }
    },
    "is_potentially_hazardous_asteroid": true,
    "close_approach_data": [
        {
            "close_approach_date": "2013-04-05",
            "close_approach_date_full": "2013-Apr-05 08:42",
            "epoch_date_close_approach": 1365151320000,
            "relative_velocity": {
                "kilometers_per_second": "10.2644412922",
                "kilometers_per_hour": "36951.9886520914",
                "miles_per_hour": "22960.5287266287"
            },
            "miss_distance": {
                "astronomical": "0.1457809193",
                "lunar": "56.7087776077",
                "kilometers": "21808515.013921891",
                "miles": "13551182.8529524558"
            },
            "orbiting_body": "Earth"
        },
        {
            "close_approach_date": "2026-04-26",
            "close_approach_date_full": "2026-Apr-26 15:17",
            "epoch_date_close_approach": 1777216620000,
            "relative_velocity": {
                "kilometers_per_second": "16.714686081",
                "kilometers_per_hour": "60172.8698914535",
                "miles_per_hour": "37389.0812944979"
            },
            "miss_distance": {
                "astronomical": "0.2820673079",
                "lunar": "109.7241827731",
                "kilometers": "42196668.458474173",
                "miles": "26219793.9520946674"
            },
            "orbiting_body": "Earth"
        },
        {
            "close_approach_date": "2039-05-10",
            "close_approach_date_full": "2039-May-10 14:39",
            "epoch_date_close_approach": 2188651140000,
            "relative_velocity": {
                "kilometers_per_second": "23.4231531263",
                "kilometers_per_hour": "84323.3512546084",
                "miles_per_hour": "52395.251228176"
            },
            "miss_distance": {
                "astronomical": "0.4891255081",
                "lunar": "190.2698226509",
                "kilometers": "73172134.174427747",
                "miles": "45467055.8405950286"
            },
            "orbiting_body": "Earth"
        },
        {
            "close_approach_date": "2046-12-24",
            "close_approach_date_full": "2046-Dec-24 01:53",
            "epoch_date_close_approach": 2429229180000,
            "relative_velocity": {
                "kilometers_per_second": "19.8890609202",
                "kilometers_per_hour": "71600.619312765",
                "miles_per_hour": "44489.8403724233"
            },
            "miss_distance": {
                "astronomical": "0.330189473",
                "lunar": "128.443704997",
                "kilometers": "49395641.85722251",
                "miles": "30693028.595430238"
            },
            "orbiting_body": "Earth"
        }
    ],
    "orbital_data": {
        "orbit_id": "19",
        "orbit_determination_date": "2019-03-17 07:25:11",
        "first_observation_date": "2013-05-04",
        "last_observation_date": "2013-06-12",
        "data_arc_in_days": 39,
        "observations_used": 63,
        "orbit_uncertainty": "6",
        "minimum_orbit_intersection": ".0205182",
        "jupiter_tisserand_invariant": "3.775",
        "epoch_osculation": "2459000.5",
        "eccentricity": ".5108185088235612",
        "semi_major_axis": "1.893412805972584",
        "inclination": "8.110798933172239",
        "ascending_node_longitude": "109.5343705321617",
        "orbital_period": "951.6262034909864",
        "perihelion_distance": ".9262224998382337",
        "perihelion_argument": "44.3218112955484",
        "aphelion_distance": "2.860603112106933",
        "perihelion_time": "2459212.691431417391",
        "mean_anomaly": "279.7280244805864",
        "mean_motion": ".3782997974197858",
        "equinox": "J2000",
        "orbit_class": {
            "orbit_class_type": "APO",
            "orbit_class_description": "Near-Earth asteroid orbits which cross the Earth’s orbit similar to that of 1862 Apollo",
            "orbit_class_range": "a (semi-major axis) > 1.0 AU; q (perihelion) < 1.017 AU"
        }
    },
    "is_sentry_object": false
}